BATSU-CS1 (IRAZU)       
1 43468U 98067NR  20064.05831928  .04860327  12102-4  10158-2 0  9990
2 43468  51.6208  66.1430 0002240 149.8670 210.2481 16.30203714203978
CUBERRT                 
1 43546U 98067NU  20067.20592097  .00009092  00000-0  78980-4 0  9997
2 43546  51.6351  84.6936 0004456  54.6725 305.4688 15.69937319 94166
TEMPEST-D               
1 43547U 98067NV  20067.16464605  .00004555  00000-0  59318-4 0  9999
2 43547  51.6370 107.7476 0005673  32.8638 327.2707 15.60981790 93534
RAINCUBE                
1 43548U 98067NW  20067.34488567  .00018466  00000-0  16038-3 0  9990
2 43548  51.6338  92.3512 0005639  50.9861 309.1637 15.69131467 94203
HALOSAT                 
1 43549U 98067NX  20067.30952688  .00016018  00000-0  14242-3 0  9993
2 43549  51.6359  92.9144 0005216  51.4226 308.7237 15.68681326 93759
ENDUROSAT ONE           
1 43551U 98067NZ  20067.41737786  .00026949  00000-0  19648-3 0  9997
2 43551  51.6334  85.3255 0005840  61.6391 298.5196 15.73064952 94277
EQUISAT                 
1 43552U 98067PA  20067.44280588  .00016973  00000-0  14699-3 0  9991
2 43552  51.6359  90.8457 0006084  58.6201 301.5390 15.69271031 94169
AEROCUBE 12A            
1 43556U 18046C   20066.73461654  .00001479  00000-0  63440-4 0  9994
2 43556  51.6415 238.9956 0007668 288.8319  71.1829 15.29466620 91655
AEROCUBE 12B            
1 43557U 18046D   20066.51651230  .00000412  00000-0  26818-4 0  9996
2 43557  51.6413 240.5310 0007648 288.0897  71.9250 15.29230232 91562
UITMSAT-1               
1 43589U 98067PD  20067.47419349  .00021760  00000-0  17649-3 0  9991
2 43589  51.6323  90.1645 0005548  64.3585 295.7985 15.70669226 89915
MAYA-1                  
1 43590U 98067PE  20066.32202354  .00020238  00000-0  16484-3 0  9997
2 43590  51.6335  95.9796 0005658  61.1976 298.9589 15.70619469 89662
BHUTAN-1                
1 43591U 98067PF  20067.31977802  .00021824  00000-0  17637-3 0  9998
2 43591  51.6339  90.6937 0005736  65.1453 295.0141 15.70753382 89820
SIRIUSSAT-1             
1 43595U 98067PG  20067.42872711  .00020446  00000-0  17734-3 0  9994
2 43595  51.6334  93.6340 0003961  37.0942 323.0328 15.69092162 88973
SIRIUSSAT-2             
1 43596U 98067PH  20067.54746806  .00024699  00000-0  21380-3 0  9999
2 43596  51.6339  93.7418 0004365  35.2509 324.8776 15.69009693 88988
TANUSHA-3               
1 43597U 98067PJ  20067.44890548  .00033937  00000-0  23361-3 0  9998
2 43597  51.6320  86.9279 0004500  50.4055 309.7340 15.74288100 89061
SURFSAT                 
1 43614U 18070B   20067.12132412  .00002542  00000-0  66499-4 0  9996
2 43614  93.0277 112.2910 0016197  23.0844 337.1134 15.38694096 82743
CP7 (DAVE)              
1 43615U 18070C   20067.59924880  .00002385  00000-0  62645-4 0  9990
2 43615  93.0279 112.4845 0016228  20.7541 339.4368 15.38576891 82812
ELFIN-B                 
1 43616U 18070D   20067.26651540  .00002905  00000-0  73491-4 0  9994
2 43616  93.0241 112.2631 0016865  24.1895 336.0147 15.39694609 82794
ELFIN-A                 
1 43617U 18070E   20067.57059824  .00003714  00000-0  93504-4 0  9992
2 43617  93.0295 112.8160 0015980  20.3395 339.8493 15.39839423 82843
CUBEBEL-1 (BSUSAT-1)    
1 43666U 18083E   20067.48065260  .00001082  00000-0  56400-4 0  9991
2 43666  97.5003  94.9082 0014876   2.7635 143.3422 15.18058777 75147
DEBRISSAT-2             
1 43680U 98067PR  20067.46105884  .00062393  00000-0  32047-3 0  9994
2 43680  51.6336  81.7796 0004628  59.6990 300.4469 15.80610446 97864
CICERO 10               
1 43690U 18088A   20067.26378164  .00000809  00000-0  35591-4 0  9993
2 43690  85.0401 145.6555 0013624 332.8293  27.2234 15.20068207 73235
IRVINE01                
1 43693U 18088D   20067.23325452  .00002159  00000-0  91435-4 0  9994
2 43693  85.0376 144.6614 0015803 311.8726  48.1166 15.22425326 73296
PROXIMA I               
1 43694U 18088E   20067.24068425  .00000808  00000-0  33732-4 0  9995
2 43694  85.0343 144.4589 0017169 302.9269  57.0321 15.21798757 73292
PROXIMA II              
1 43696U 18088G   20067.56785908  .00000847  00000-0  35405-4 0  9996
2 43696  85.0343 144.2453 0017200 301.5083  58.4478 15.21803022 73343
FACSAT-1                
1 43721U 18096C   20067.31786520  .00001366  00000-0  54215-4 0  9995
2 43721  97.4299 141.4198 0019182 121.2813 239.0308 15.26939227 70802
CENTAURI-2              
1 43722U 18096D   20067.31038249  .00001772  00000-0  68589-4 0  9994
2 43722  97.4308 141.5986 0019207 121.5126 238.7993 15.27374354 70809
INNOSAT-2               
1 43738U 18096V   20067.37351169  .00002713  00000-0  95822-4 0  9992
2 43738  97.4321 143.2207 0025110 129.7839 230.5618 15.29808563 70920
SIRION PATHFINDER-2     
1 43759U 18099B   20067.25806310 -.00000107  00000-0 -44892-5 0  9997
2 43759  97.7151 140.6164 0014862 159.4842 200.6979 14.95233249 68656
CORVUS-BC 4             
1 43767U 18099K   20067.36210778  .00000158  00000-0  19801-4 0  9990
2 43767  97.7138 140.2395 0012289 161.1653 199.0025 14.94676866 68651
MOVE-II                 
1 43780U 18099Y   20067.41149229  .00000810  00000-0  78618-4 0  9999
2 43780  97.7156 140.6751 0014107 169.5005 190.6513 14.95296867 68660
SPACEBEE-7              
1 43816U 18099BL  20067.17062797  .00000115  00000-0  15566-4 0  9997
2 43816  97.7171 140.7660 0014138 155.2523 204.9379 14.95608471 68205
SPACEBEE-5              
1 43817U 18099BM  20067.42951218  .00001089  00000-0  10181-3 0  9999
2 43817  97.7215 141.3188 0014218 154.7742 205.4177 14.96103544 68252
SPACEBEE-6              
1 43818U 18099BN  20067.27982471  .00000945  00000-0  89828-4 0  9993
2 43818  97.7181 140.9668 0014325 155.0832 205.1084 14.95762456 68375
SHIELDS 1               
1 43850U 18104B   20067.44772029  .00000042  00000-0  00000-0 0  9990
2 43850  85.0257 242.7597 0017321  84.0725 276.2551 15.21294413 67963
STF-1                   
1 43852U 18104D   20067.45012106  .00000042  00000-0  00000-0 0  9996
2 43852  85.0311 243.2275 0016646  96.3464 263.9827 15.21064826 67940
ZACUBE-2                
1 43907U 18111AH  20067.58541319  .00000515  00000-0  23658-4 0  9995
2 43907  97.2749 330.3680 0022598 139.9268 220.3642 15.24474830 66492
LUME 1                  
1 43908U 18111AJ  20067.40526195  .00000880  00000-0  38037-4 0  9994
2 43908  97.2749 330.3019 0022403 140.2771 220.0113 15.24827080 66475
AOBA VELOX-IV           
1 43940U 19003J   20067.42199197  .00001461  00000-0  61634-4 0  9996
2 43940  97.2425 122.1483 0023027 220.6268 260.6716 15.24632608 63107
CATSAT-2                
1 44029U 98067PV  20067.31498032  .00011247  00000-0  13209-3 0  9997
2 44029  51.6383 112.5455 0004871  52.5323 307.6113 15.61998403 62544
DELPHINI                
1 44030U 98067PW  20067.51341551  .00012699  00000-0  14478-3 0  9995
2 44030  51.6352 110.8012 0005001  51.3311 308.8130 15.62630187 62558
UNITE                   
1 44031U 98067PX  20067.41558056  .00006983  00000-0  92982-4 0  9991
2 44031  51.6374 115.4366 0003868  49.6162 310.5168 15.59393009 62487
TECHEDSAT 8             
1 44032U 98067PY  20067.35248981  .00114696  00000-0  51725-3 0  9998
2 44032  51.6279  93.0890 0006508  51.5280 308.6306 15.83155081 62757
CATSAT-1                
1 44033U 98067PZ  20067.50678569  .00010695  00000-0  12596-3 0  9992
2 44033  51.6386 111.5807 0004822  52.0417 308.1012 15.61986750 62486
RAAVANA-1               
1 44329U 98067QE  20067.45809065  .00006982  00000-0  10580-3 0  9996
2 44329  51.6398 124.7565 0006755 347.0426  13.0391 15.55860086 41113
UGUISU                  
1 44330U 98067QF  20067.53017933  .00008176  00000-0  12293-3 0  9992
2 44330  51.6397 124.4850 0006718 346.0808  13.9998 15.55802034 41100
NEPALISAT-1             
1 44331U 98067QG  20067.32392244  .00006868  00000-0  10407-3 0  9992
2 44331  51.6397 125.3601 0006797 347.7812  12.3014 15.55887911 41081
SPOOQY-1                
1 44332U 98067QH  20067.45100839  .00007118  00000-0  10778-3 0  9994
2 44332  51.6395 124.7055 0005694 351.5591   8.5304 15.55846016 41066
SPACEBEE-9              
1 44370U 19037F   20067.42465640  .00007829  00000-0  18776-3 0  9992
2 44370  45.0136 325.6005 0014042 305.5922  54.3627 15.41892878 38840
SPACEBEE-8              
1 44371U 19037G   20067.40679995  .00013991  00000-0  29956-3 0  9990
2 44371  45.0179 322.9430 0011737 311.6721  48.3133 15.44704305 38860
IOD-1 GEMS              
1 44385U 98067QK  20067.42806262  .00011462  00000-0  16190-3 0  9993
2 44385  51.6403 124.5874 0002917 324.4547  35.6250 15.57058450 38589
MOVE-IIB                
1 44398U 19038N   20067.51826289  .00001057  00000-0  64685-4 0  9991
2 44398  97.5242  30.1408 0026794 116.6951 243.7027 15.12088902 37171
SONATE                  
1 44400U 19038Q   20067.53197387  .00000389  00000-0  26409-4 0  9996
2 44400  97.5271  30.1733 0026756 115.2996 245.1011 15.11850148 37177
LUCKY-7                 
1 44406U 19038W   20067.36613437  .00000597  00000-0  38201-4 0  9996
2 44406  97.5266  30.0803 0026225 115.6128 244.7817 15.12086265 37144
BEESAT 9                
1 44412U 19038AC  20067.43485625  .00000803  00000-0  50094-4 0  9991
2 44412  97.5259  30.1305 0024230 120.6361 239.7263 15.12120530 36850
JAISAT-1                
1 44419U 19038F   20067.42153577  .00000741  00000-0  45962-4 0  9994
2 44419  97.5261  30.3045 0023073 120.0825 240.2697 15.12602647 37174
SWIATOWID               
1 44426U 98067QL  20067.57393110  .00014306  00000-0  19759-3 0  9992
2 44426  51.6421 123.7408 0003390 312.5069 195.3832 15.57430764 38618
KRAKSAT                 
1 44427U 98067QM  20067.55253401  .00006412  00000-0  10278-3 0  9995
2 44427  51.6410 126.1610 0003375 306.6581  53.4100 15.54462327 38625
VCC A                   
1 44428U 98067QN  20067.41233779  .00006817  00000-0  10549-3 0  9997
2 44428  51.6408 125.9784 0002994 330.9411  29.1413 15.55328723 38618
